[
    {
        "Altitude(m)": 611965.2356594764,
        "Argument of Periapsis(deg)": 0.0,
        "Eccentricity": 0.0,
        "Inclination(deg)": 60.0,
        "Latitude(deg)": 59.140314047381565,
        "Longitude(deg)": 108.96984139552613,
        "Mean Anomaly(deg)": 81.8182,
        "RAAN(deg)": 135.0,
        "Satellite Name": "Test1 599",
        "Satellite Number": 599,
        "Semi-Major Axis(m)": 6980739.136638005,
        "Time(s)": 0
    },
    {
        "Altitude(m)": 611995.8609275733,
        "Argument of Periapsis(deg)": 0.00010418945913296404,
        "Eccentricity": 0.0,
        "Inclination(deg)": 60.0,
        "Latitude(deg)": 59.28341372054077,
        "Longitude(deg)": 110.10320876357898,
        "Mean Anomaly(deg)": 82.43830614546184,
        "RAAN(deg)": 134.99957995086024,
        "Satellite Name": "Test1 599",
        "Satellite Number": 599,
        "Semi-Major Axis(m)": 6980739.136638005,
        "Time(s)": 10
    }
]